{"type": "FeatureCollection", "features": [ {"type": "Feature", "properties": {"norad_id": 33980, "name": "COSMOS 2251 DEB", "group": "cosmos-2251-debris", "lat": 12.09616488925701, "lon": -126.83817526992534, "alt_km": 681.6450340990541, "timestamp": "2025-12-14T03:55:53.181145+00:00", "meta": {"OBJECT_NAME": "COSMOS 2251 DEB", "OBJECT_ID": "1993-036FP", "EPOCH": "2025-12-13T07:43:53.209632", "MEAN_MOTION": 14.58659939, "ECCENTRICITY": 0.00286605, "INCLINATION": 74.0219, "RA_OF_ASC_NODE": 58.2856, "ARG_OF_PERICENTER": 203.4459, "MEAN_ANOMALY": 226.099, "EPHEMERIS_TYPE": 0, "CLASSIFICATION_TYPE": "U", "NORAD_CAT_ID": 33980, "ELEMENT_SET_NO": 999, "REV_AT_EPOCH": 88803, "BSTAR": 0.001105096, "MEAN_MOTION_DOT": 5.154e-05, "MEAN_MOTION_DDOT": 0}, "tle": {"line1": "1 33980U 93036FP  25347.32214363  .00005154  00000+0  11051-2 0  9993", "line2": "2 33980  74.0219  58.2856 0028660 203.4459 226.0990 14.58659939888035"}}, "geometry": {"type": "Point", "coordinates": [-126.83817526992534, 12.09616488925701]}}, {"type": "Feature", "properties": {"norad_id": 33982, "name": "COSMOS 2251 DEB", "group": "cosmos-2251-debris", "lat": 28.599521173302005, "lon": 6.181614480511958, "alt_km": 638.7453180348157, "timestamp": "2025-12-14T03:55:53.181155+00:00", "meta": {"OBJECT_NAME": "COSMOS 2251 DEB", "OBJECT_ID": "1993-036FR", "EPOCH": "2025-12-13T08:08:02.454720", "MEAN_MOTION": 14.60215908, "ECCENTRICITY": 0.00750759, "INCLINATION": 74.071, "RA_OF_ASC_NODE": 358.7945, "ARG_OF_PERICENTER": 43.1037, "MEAN_ANOMALY": 332.5204, "EPHEMERIS_TYPE": 0, "CLASSIFICATION_TYPE": "U", "NORAD_CAT_ID": 33982, "ELEMENT_SET_NO": 999, "REV_AT_EPOCH": 89168, "BSTAR": 0.0006447701, "MEAN_MOTION_DOT": 3.205e-05, "MEAN_MOTION_DDOT": 0}, "tle": {"line1": "1 33982U 93036FR  25347.33891730  .00003205  00000+0  64477-3 0  9991", "line2": "2 33982  74.0710 358.7945 0075075  43.1037 332.5204 14.60215908891686"}}, "geometry": {"type": "Point", "coordinates": [6.181614480511958, 28.599521173302005]}}, {"type": "Feature", "properties": {"norad_id": 33983, "name": "COSMOS 2251 DEB", "group": "cosmos-2251-debris", "lat": -73.71700253574171, "lon": 66.1002757230781, "alt_km": 716.7741438483463, "timestamp": "2025-12-14T03:55:53.181165+00:00", "meta": {"OBJECT_NAME": "COSMOS 2251 DEB", "OBJECT_ID": "1993-036FS", "EPOCH": "2025-12-12T21:35:10.199904", "MEAN_MOTION": 14.5067208, "ECCENTRICITY": 0.00213487, "INCLINATION": 74.0494, "RA_OF_ASC_NODE": 146.7457, "ARG_OF_PERICENTER": 249.7872, "MEAN_ANOMALY": 262.8983, "EPHEMERIS_TYPE": 0, "CLASSIFICATION_TYPE": "U", "NORAD_CAT_ID": 33983, "ELEMENT_SET_NO": 999, "REV_AT_EPOCH": 88631, "BSTAR": 0.00087472782, "MEAN_MOTION_DOT": 3.42e-05, "MEAN_MOTION_DDOT": 0}, "tle": {"line1": "1 33983U 93036FS  25346.89942361  .00003420  00000+0  87473-3 0  9999", "line2": "2 33983  74.0494 146.7457 0021348 249.7872 262.8983 14.50672080886314"}}, "geometry": {"type": "Point", "coordinates": [66.1002757230781, -73.71700253574171]}}, {"type": "Feature", "properties": {"norad_id": 33984, "name": "COSMOS 2251 DEB", "group": "cosmos-2251-debris", "lat": 71.61549614527205, "lon": 104.72293409396583, "alt_km": 663.354450119492, "timestamp": "2025-12-14T03:55:53.181176+00:00", "meta": {"OBJECT_NAME": "COSMOS 2251 DEB", "OBJECT_ID": "1993-036FT", "EPOCH": "2025-12-13T06:15:43.660800", "MEAN_MOTION": 14.66373575, "ECCENTRICITY": 0.00230901, "INCLINATION": 74.0099, "RA_OF_ASC_NODE": 346.0954, "ARG_OF_PERICENTER": 184.1604, "MEAN_ANOMALY": 190.9102, "EPHEMERIS_TYPE": 0, "CLASSIFICATION_TYPE": "U", "NORAD_CAT_ID": 33984, "ELEMENT_SET_NO": 999, "REV_AT_EPOCH": 89074, "BSTAR": 0.0013554918, "MEAN_MOTION_DOT": 7.497e-05, "MEAN_MOTION_DDOT": 0}, "tle": {"line1": "1 33984U 93036FT  25347.26092200  .00007497  00000+0  13555-2 0  9997", "line2": "2 33984  74.0099 346.0954 0023090 184.1604 190.9102 14.66373575890744"}}, "geometry": {"type": "Point", "coordinates": [104.72293409396583, 71.61549614527205]}}, {"type": "Feature", "properties": {"norad_id": 33986, "name": "COSMOS 2251 DEB", "group": "cosmos-2251-debris", "lat": -11.902920266247053, "lon": -63.43067030080748, "alt_km": 725.6825477150833, "timestamp": "2025-12-14T03:55:53.181186+00:00", "meta": {"OBJECT_NAME": "COSMOS 2251 DEB", "OBJECT_ID": "1993-036FV", "EPOCH": "2025-12-13T03:06:27.122112", "MEAN_MOTION": 14.43208756, "ECCENTRICITY": 0.004046, "INCLINATION": 74.0367, "RA_OF_ASC_NODE": 301.9487, "ARG_OF_PERICENTER": 14.506, "MEAN_ANOMALY": 1.6618, "EPHEMERIS_TYPE": 0, "CLASSIFICATION_TYPE": "U", "NORAD_CAT_ID": 33986, "ELEMENT_SET_NO": 999, "REV_AT_EPOCH": 88034, "BSTAR": 0.0012262721, "MEAN_MOTION_DOT": 4.14e-05, "MEAN_MOTION_DDOT": 0}, "tle": {"line1": "1 33986U 93036FV  25347.12948058  .00004140  00000+0  12263-2 0  9992", "line2": "2 33986  74.0367 301.9487 0040460  14.5060   1.6618 14.43208756880345"}}, "geometry": {"type": "Point", "coordinates": [-63.43067030080748, -11.902920266247053]}}, {"type": "Feature", "properties": {"norad_id": 33990, "name": "COSMOS 2251 DEB", "group": "cosmos-2251-debris", "lat": -71.29914187072428, "lon": -134.6773371322338, "alt_km": 799.9497654874949, "timestamp": "2025-12-14T03:55:53.181196+00:00", "meta": {"OBJECT_NAME": "COSMOS 2251 DEB", "OBJECT_ID": "1993-036FZ", "EPOCH": "2025-12-13T07:33:07.240032", "MEAN_MOTION": 13.49995069, "ECCENTRICITY": 0.04075266, "INCLINATION": 73.9287, "RA_OF_ASC_NODE": 285.0713, "ARG_OF_PERICENTER": 305.2763, "MEAN_ANOMALY": 170.968, "EPHEMERIS_TYPE": 0, "CLASSIFICATION_TYPE": "U", "NORAD_CAT_ID": 33990, "ELEMENT_SET_NO": 999, "REV_AT_EPOCH": 82737, "BSTAR": 0.002055306, "MEAN_MOTION_DOT": 2.167e-05, "MEAN_MOTION_DDOT": 0}, "tle": {"line1": "1 33990U 93036FZ  25347.31466713  .00002167  00000+0  20553-2 0  9999", "line2": "2 33990  73.9287 285.0713 0407526 305.2763 170.9680 13.49995069827371"}}, "geometry": {"type": "Point", "coordinates": [-134.6773371322338, -71.29914187072428]}}, {"type": "Feature", "properties": {"norad_id": 33992, "name": "COSMOS 2251 DEB", "group": "cosmos-2251-debris", "lat": -37.63409243277119, "lon": -37.76991630190583, "alt_km": 703.3362904649275, "timestamp": "2025-12-14T03:55:53.181206+00:00", "meta": {"OBJECT_NAME": "COSMOS 2251 DEB", "OBJECT_ID": "1993-036GB", "EPOCH": "2025-12-13T05:15:10.937376", "MEAN_MOTION": 14.66221075, "ECCENTRICITY": 0.00516385, "INCLINATION": 74.0245, "RA_OF_ASC_NODE": 336.8128, "ARG_OF_PERICENTER": 94.517, "MEAN_ANOMALY": 280.8957, "EPHEMERIS_TYPE": 0, "CLASSIFICATION_TYPE": "U", "NORAD_CAT_ID": 33992, "ELEMENT_SET_NO": 999, "REV_AT_EPOCH": 89132, "BSTAR": 0.0011384275, "MEAN_MOTION_DOT": 6.369e-05, "MEAN_MOTION_DDOT": 0}, "tle": {"line1": "1 33992U 93036GB  25347.21887659  .00006369  00000+0  11384-2 0  9996", "line2": "2 33992  74.0245 336.8128 0051638  94.5170 280.8957 14.66221075891326"}}, "geometry": {"type": "Point", "coordinates": [-37.76991630190583, -37.63409243277119]}}, {"type": "Feature", "properties": {"norad_id": 33994, "name": "COSMOS 2251 DEB", "group": "cosmos-2251-debris", "lat": 67.65743375175784, "lon": -36.349565134757015, "alt_km": 761.1991355657383, "timestamp": "2025-12-14T03:55:53.181216+00:00", "meta": {"OBJECT_NAME": "COSMOS 2251 DEB", "OBJECT_ID": "1993-036GD", "EPOCH": "2025-12-12T23:40:18.789312", "MEAN_MOTION": 14.4121484, "ECCENTRICITY": 0.00236651, "INCLINATION": 74.0416, "RA_OF_ASC_NODE": 189.9534, "ARG_OF_PERICENTER": 324.2204, "MEAN_ANOMALY": 154.6818, "EPHEMERIS_TYPE": 0, "CLASSIFICATION_TYPE": "U", "NORAD_CAT_ID": 33994, "ELEMENT_SET_NO": 999, "REV_AT_EPOCH": 88423, "BSTAR": 0.00013065733, "MEAN_MOTION_DOT": 3.96e-06, "MEAN_MOTION_DDOT": 0}, "tle": {"line1": "1 33994U 93036GD  25346.98632858  .00000396  00000+0  13066-3 0  9994", "line2": "2 33994  74.0416 189.9534 0023665 324.2204 154.6818 14.41214840884237"}}, "geometry": {"type": "Point", "coordinates": [-36.349565134757015, 67.65743375175784]}}, {"type": "Feature", "properties": {"norad_id": 33995, "name": "COSMOS 2251 DEB", "group": "cosmos-2251-debris", "lat": 29.683275088216575, "lon": -72.62834766545863, "alt_km": 733.0559289896573, "timestamp": "2025-12-14T03:55:53.181226+00:00", "meta": {"OBJECT_NAME": "COSMOS 2251 DEB", "OBJECT_ID": "1993-036GE", "EPOCH": "2025-12-13T02:08:31.613856", "MEAN_MOTION": 14.34776784, "ECCENTRICITY": 0.00600735, "INCLINATION": 74.0607, "RA_OF_ASC_NODE": 118.7119, "ARG_OF_PERICENTER": 133.0266, "MEAN_ANOMALY": 227.5942, "EPHEMERIS_TYPE": 0, "CLASSIFICATION_TYPE": "U", "NORAD_CAT_ID": 33995, "ELEMENT_SET_NO": 999, "REV_AT_EPOCH": 87524, "BSTAR": 0.0014876499, "MEAN_MOTION_DOT": 4.282e-05, "MEAN_MOTION_DDOT": 0}, "tle": {"line1": "1 33995U 93036GE  25347.08925479  .00004282  00000+0  14876-2 0  9998", "line2": "2 33995  74.0607 118.7119 0060073 133.0266 227.5942 14.34776784875248"}}, "geometry": {"type": "Point", "coordinates": [-72.62834766545863, 29.683275088216575]}}, {"type": "Feature", "properties": {"norad_id": 33999, "name": "COSMOS 2251 DEB", "group": "cosmos-2251-debris", "lat": -15.471893163837208, "lon": 52.51747727510153, "alt_km": 613.7109096520917, "timestamp": "2025-12-14T03:55:53.181236+00:00", "meta": {"OBJECT_NAME": "COSMOS 2251 DEB", "OBJECT_ID": "1993-036GJ", "EPOCH": "2025-12-13T02:46:33.848256", "MEAN_MOTION": 14.83380151, "ECCENTRICITY": 0.00445443, "INCLINATION": 73.9188, "RA_OF_ASC_NODE": 230.0272, "ARG_OF_PERICENTER": 125.4301, "MEAN_ANOMALY": 235.1049, "EPHEMERIS_TYPE": 0, "CLASSIFICATION_TYPE": "U", "NORAD_CAT_ID": 33999, "ELEMENT_SET_NO": 999, "REV_AT_EPOCH": 89256, "BSTAR": 0.0019601302, "MEAN_MOTION_DOT": 0.00016365, "MEAN_MOTION_DDOT": 0}, "tle": {"line1": "1 33999U 93036GJ  25347.11566954  .00016365  00000+0  19601-2 0  9991", "line2": "2 33999  73.9188 230.0272 0044544 125.4301 235.1049 14.83380151892562"}}, "geometry": {"type": "Point", "coordinates": [52.51747727510153, -15.471893163837208]}}]}